0 TITAN 3C TRANSTAGE DEB
1 03462U 65082PT  13283.03624663  .00001830  00000-0  14929-3 0  6934
2 03462 032.0245 200.9770 0023090 151.0568 312.8090 14.97226795585753
0 TITAN 3C TRANSTAGE DEB
1 03462U 65082PT  13287.11170868  .00002064  00000-0  16886-3 0  6956
2 03462 032.0242 175.4769 0023263 189.7949 319.9403 14.97239840586366
0 TITAN 3C TRANSTAGE DEB
1 03462U 65082PT  13289.04394844  .00003048  00000-0  25152-3 0  6962
2 03462 032.0243 163.3896 0023269 208.3730 294.7758 14.97249989586656
0 TITAN 3C TRANSTAGE DEB
1 03462U 65082PT  13291.04600242  .00002703  00000-0  22243-3 0  6973
2 03462 032.0239 150.8620 0023339 227.3174 286.2939 14.97259851586957
0 TITAN 3C TRANSTAGE DEB
1 03462U 65082PT  13293.83800554  .00002897  00000-0  23868-3 0  6989
2 03462 032.0242 133.3911 0023322 253.6959 215.9635 14.97271453587376
0 TITAN 3C TRANSTAGE DEB
1 03462U 65082PT  13295.84048042  .00003102  00000-0  25588-3 0  6990
2 03462 032.0246 120.8608 0023308 272.4949 210.0585 14.97281509587672
